{"type": "FeatureCollection", "features": [{"type": "Feature", "properties": {"norad_id": 25590, "name": "COSMOS 2361", "group": "musson", "lat": 42.702228761146195, "lon": -18.026034364437077, "alt_km": 1006.5495332860119, "timestamp": "2025-12-24T11:33:00.286478+00:00", "meta": {"OBJECT_NAME": "COSMOS 2361", "OBJECT_ID": "1998-076A", "EPOCH": "2025-12-24T01:10:10.272000", "MEAN_MOTION": 13.7321867, "ECCENTRICITY": 0.0030276, "INCLINATION": 82.9345, "RA_OF_ASC_NODE": 335.7217, "ARG_OF_PERICENTER": 232.8689, "MEAN_ANOMALY": 193.253, "EPHEMERIS_TYPE": 0, "CLASSIFICATION_TYPE": "U", "NORAD_CAT_ID": 25590, "ELEMENT_SET_NO": 999, "REV_AT_EPOCH": 35266, "BSTAR": 3.8252e-05, "MEAN_MOTION_DOT": 5e-07, "MEAN_MOTION_DDOT": 0}, "tle": {"line1": "1 25590U 98076A   25358.04873000  .00000050  00000+0  38252-4 0  9994", "line2": "2 25590  82.9345 335.7217 0030276 232.8689 193.2530 13.73218670352661"}}, "geometry": {"type": "Point", "coordinates": [-18.026034364437077, 42.702228761146195]}}, {"type": "Feature", "properties": {"norad_id": 26818, "name": "COSMOS 2378", "group": "musson", "lat": 25.01768236540944, "lon": 167.6966686422442, "alt_km": 960.6462797872091, "timestamp": "2025-12-24T11:33:00.286500+00:00", "meta": {"OBJECT_NAME": "COSMOS 2378", "OBJECT_ID": "2001-023A", "EPOCH": "2025-12-24T02:23:31.654752", "MEAN_MOTION": 13.74142919, "ECCENTRICITY": 0.0033111, "INCLINATION": 82.9272, "RA_OF_ASC_NODE": 351.301, "ARG_OF_PERICENTER": 173.0325, "MEAN_ANOMALY": 255.1688, "EPHEMERIS_TYPE": 0, "CLASSIFICATION_TYPE": "U", "NORAD_CAT_ID": 26818, "ELEMENT_SET_NO": 999, "REV_AT_EPOCH": 23079, "BSTAR": 3.4432e-05, "MEAN_MOTION_DOT": 4.8e-07, "MEAN_MOTION_DDOT": 0}, "tle": {"line1": "1 26818U 01023A   25358.09967193  .00000048  00000+0  34432-4 0  9999", "line2": "2 26818  82.9272 351.3010 0033111 173.0325 255.1688 13.74142919230797"}}, "geometry": {"type": "Point", "coordinates": [167.6966686422442, 25.01768236540944]}}, {"type": "Feature", "properties": {"norad_id": 27436, "name": "COSMOS 2389", "group": "musson", "lat": 44.08916275834731, "lon": -54.82339578799731, "alt_km": 943.9880189729647, "timestamp": "2025-12-24T11:33:00.286513+00:00", "meta": {"OBJECT_NAME": "COSMOS 2389", "OBJECT_ID": "2002-026A", "EPOCH": "2025-12-24T02:39:16.265088", "MEAN_MOTION": 13.75155835, "ECCENTRICITY": 0.0047137, "INCLINATION": 82.9512, "RA_OF_ASC_NODE": 298.5673, "ARG_OF_PERICENTER": 29.7155, "MEAN_ANOMALY": 340.8447, "EPHEMERIS_TYPE": 0, "CLASSIFICATION_TYPE": "U", "NORAD_CAT_ID": 27436, "ELEMENT_SET_NO": 999, "REV_AT_EPOCH": 18305, "BSTAR": 6.3815e-05, "MEAN_MOTION_DOT": 7.7e-07, "MEAN_MOTION_DDOT": 0}, "tle": {"line1": "1 27436U 02026A   25358.11060492  .00000077  00000+0  63815-4 0  9998", "line2": "2 27436  82.9512 298.5673 0047137  29.7155 340.8447 13.75155835183052"}}, "geometry": {"type": "Point", "coordinates": [-54.82339578799731, 44.08916275834731]}}, {"type": "Feature", "properties": {"norad_id": 27818, "name": "COSMOS 2398", "group": "musson", "lat": -59.663221216787576, "lon": 96.25688475552148, "alt_km": 1020.7666906013501, "timestamp": "2025-12-24T11:33:00.286526+00:00", "meta": {"OBJECT_NAME": "COSMOS 2398", "OBJECT_ID": "2003-023A", "EPOCH": "2025-12-24T03:55:05.303712", "MEAN_MOTION": 13.72386966, "ECCENTRICITY": 0.00327, "INCLINATION": 82.9483, "RA_OF_ASC_NODE": 264.2806, "ARG_OF_PERICENTER": 81.3728, "MEAN_ANOMALY": 28.6421, "EPHEMERIS_TYPE": 0, "CLASSIFICATION_TYPE": "U", "NORAD_CAT_ID": 27818, "ELEMENT_SET_NO": 999, "REV_AT_EPOCH": 12973, "BSTAR": 7.5955e-05, "MEAN_MOTION_DOT": 8.5e-07, "MEAN_MOTION_DDOT": 0}, "tle": {"line1": "1 27818U 03023A   25358.16325583  .00000085  00000+0  75955-4 0  9997", "line2": "2 27818  82.9483 264.2806 0032700  81.3728  28.6421 13.72386966129737"}}, "geometry": {"type": "Point", "coordinates": [96.25688475552148, -59.663221216787576]}}, {"type": "Feature", "properties": {"norad_id": 28380, "name": "COSMOS 2407", "group": "musson", "lat": -60.75043697421468, "lon": 36.947309214571206, "alt_km": 1006.9350181451582, "timestamp": "2025-12-24T11:33:00.286537+00:00", "meta": {"OBJECT_NAME": "COSMOS 2407", "OBJECT_ID": "2004-028A", "EPOCH": "2025-12-24T00:39:10.771200", "MEAN_MOTION": 13.76314935, "ECCENTRICITY": 0.00398, "INCLINATION": 82.9595, "RA_OF_ASC_NODE": 204.5353, "ARG_OF_PERICENTER": 24.01, "MEAN_ANOMALY": 129.3509, "EPHEMERIS_TYPE": 0, "CLASSIFICATION_TYPE": "U", "NORAD_CAT_ID": 28380, "ELEMENT_SET_NO": 999, "REV_AT_EPOCH": 7578, "BSTAR": 4.2994e-05, "MEAN_MOTION_DOT": 5.7e-07, "MEAN_MOTION_DDOT": 0}, "tle": {"line1": "1 28380U 04028A   25358.02720800  .00000057  00000+0  42994-4 0  9990", "line2": "2 28380  82.9595 204.5353 0039800  24.0100 129.3509 13.76314935 75788"}}, "geometry": {"type": "Point", "coordinates": [36.947309214571206, -60.75043697421468]}}, {"type": "Feature", "properties": {"norad_id": 28521, "name": "COSMOS 2414", "group": "musson", "lat": -81.61430852885802, "lon": 118.68223431842864, "alt_km": 972.9177451409514, "timestamp": "2025-12-24T11:33:00.286548+00:00", "meta": {"OBJECT_NAME": "COSMOS 2414", "OBJECT_ID": "2005-002A", "EPOCH": "2025-12-23T11:44:27.459744", "MEAN_MOTION": 13.87904329, "ECCENTRICITY": 0.00413832, "INCLINATION": 82.9488, "RA_OF_ASC_NODE": 176.5312, "ARG_OF_PERICENTER": 109.8571, "MEAN_ANOMALY": 250.706, "EPHEMERIS_TYPE": 0, "CLASSIFICATION_TYPE": "U", "NORAD_CAT_ID": 28521, "ELEMENT_SET_NO": 999, "REV_AT_EPOCH": 5944, "BSTAR": 3.8343846e-05, "MEAN_MOTION_DOT": 6.2e-07, "MEAN_MOTION_DDOT": 0}, "tle": {"line1": "1 28521U 05002A   25357.48920671  .00000062  00000+0  38344-4 0  9997", "line2": "2 28521  82.9488 176.5312 0041383 109.8571 250.7060 13.87904329 59442"}}, "geometry": {"type": "Point", "coordinates": [118.68223431842864, -81.61430852885802]}}, {"type": "Feature", "properties": {"norad_id": 32052, "name": "COSMOS 2429", "group": "musson", "lat": -49.31753017657773, "lon": 162.89300131259265, "alt_km": 1008.2938055314062, "timestamp": "2025-12-24T11:33:00.286559+00:00", "meta": {"OBJECT_NAME": "COSMOS 2429", "OBJECT_ID": "2007-038A", "EPOCH": "2025-12-23T23:57:26.951040", "MEAN_MOTION": 13.75150474, "ECCENTRICITY": 0.0038573, "INCLINATION": 82.9807, "RA_OF_ASC_NODE": 335.0087, "ARG_OF_PERICENTER": 6.8822, "MEAN_ANOMALY": 353.2856, "EPHEMERIS_TYPE": 0, "CLASSIFICATION_TYPE": "U", "NORAD_CAT_ID": 32052, "ELEMENT_SET_NO": 999, "REV_AT_EPOCH": 91757, "BSTAR": 4.2028e-05, "MEAN_MOTION_DOT": 5.6e-07, "MEAN_MOTION_DDOT": 0}, "tle": {"line1": "1 32052U 07038A   25357.99822860  .00000056  00000+0  42028-4 0  9996", "line2": "2 32052  82.9807 335.0087 0038573   6.8822 353.2856 13.75150474917574"}}, "geometry": {"type": "Point", "coordinates": [162.89300131259265, -49.31753017657773]}}, {"type": "Feature", "properties": {"norad_id": 35635, "name": "COSMOS 2454", "group": "musson", "lat": 49.604977487662026, "lon": 168.09926131823525, "alt_km": 909.8380437215455, "timestamp": "2025-12-24T11:33:00.286570+00:00", "meta": {"OBJECT_NAME": "COSMOS 2454", "OBJECT_ID": "2009-039A", "EPOCH": "2025-12-23T22:00:46.624320", "MEAN_MOTION": 13.89929976, "ECCENTRICITY": 0.0020065, "INCLINATION": 82.9557, "RA_OF_ASC_NODE": 160.1717, "ARG_OF_PERICENTER": 43.6325, "MEAN_ANOMALY": 65.7894, "EPHEMERIS_TYPE": 0, "CLASSIFICATION_TYPE": "U", "NORAD_CAT_ID": 35635, "ELEMENT_SET_NO": 999, "REV_AT_EPOCH": 83305, "BSTAR": 4.5962e-05, "MEAN_MOTION_DOT": 7.3e-07, "MEAN_MOTION_DDOT": 0}, "tle": {"line1": "1 35635U 09039A   25357.91720630  .00000073  00000+0  45962-4 0  9992", "line2": "2 35635  82.9557 160.1717 0020065  43.6325  65.7894 13.89929976833050"}}, "geometry": {"type": "Point", "coordinates": [168.09926131823525, 49.604977487662026]}}, {"type": "Feature", "properties": {"norad_id": 36519, "name": "COSMOS 2463", "group": "musson", "lat": 38.53917569726352, "lon": 23.732248225066527, "alt_km": 1011.6274006045414, "timestamp": "2025-12-24T11:33:00.286581+00:00", "meta": {"OBJECT_NAME": "COSMOS 2463", "OBJECT_ID": "2010-017A", "EPOCH": "2025-12-24T02:55:06.367008", "MEAN_MOTION": 13.71650101, "ECCENTRICITY": 0.003479, "INCLINATION": 82.9603, "RA_OF_ASC_NODE": 18.348, "ARG_OF_PERICENTER": 255.2965, "MEAN_ANOMALY": 168.5024, "EPHEMERIS_TYPE": 0, "CLASSIFICATION_TYPE": "U", "NORAD_CAT_ID": 36519, "ELEMENT_SET_NO": 999, "REV_AT_EPOCH": 78393, "BSTAR": 2.8275e-05, "MEAN_MOTION_DOT": 4e-07, "MEAN_MOTION_DDOT": 0}, "tle": {"line1": "1 36519U 10017A   25358.12160147  .00000040  00000+0  28275-4 0  9999", "line2": "2 36519  82.9603  18.3480 0034790 255.2965 168.5024 13.71650101783936"}}, "geometry": {"type": "Point", "coordinates": [23.732248225066527, 38.53917569726352]}}]}